{"type": "FeatureCollection", "features": [ {"type": "Feature", "properties": {"norad_id": 30134, "name": "FENGYUN 1C DEB", "group": "fengyun-1c-debris", "lat": 17.78692857330635, "lon": -171.66333953133102, "alt_km": 835.5658807338323, "timestamp": "2025-12-12T11:38:31.686091+00:00", "meta": {"OBJECT_NAME": "FENGYUN 1C DEB", "OBJECT_ID": "1999-025SP", "EPOCH": "2025-12-12T00:56:37.808736", "MEAN_MOTION": 14.13345863, "ECCENTRICITY": 0.0018987, "INCLINATION": 98.694, "RA_OF_ASC_NODE": 5.0899, "ARG_OF_PERICENTER": 185.3314, "MEAN_ANOMALY": 229.8516, "EPHEMERIS_TYPE": 0, "CLASSIFICATION_TYPE": "U", "NORAD_CAT_ID": 30134, "ELEMENT_SET_NO": 999, "REV_AT_EPOCH": 97236, "BSTAR": 0.00066709, "MEAN_MOTION_DOT": 1.211e-05, "MEAN_MOTION_DDOT": 0}, "tle": {"line1": "1 30134U 99025SP  25346.03932649  .00001211  00000+0  66709-3 0  9997", "line2": "2 30134  98.6940   5.0899 0018987 185.3314 229.8516 14.13345863972366"}}, "geometry": {"type": "Point", "coordinates": [-171.66333953133102, 17.78692857330635]}}, {"type": "Feature", "properties": {"norad_id": 30136, "name": "FENGYUN 1C DEB", "group": "fengyun-1c-debris", "lat": -12.385145452538007, "lon": 57.47080049293806, "alt_km": 963.8384128422949, "timestamp": "2025-12-12T11:38:31.686102+00:00", "meta": {"OBJECT_NAME": "FENGYUN 1C DEB", "OBJECT_ID": "1999-025SR", "EPOCH": "2025-12-12T04:33:52.206048", "MEAN_MOTION": 13.95324098, "ECCENTRICITY": 0.0129453, "INCLINATION": 98.5567, "RA_OF_ASC_NODE": 239.0916, "ARG_OF_PERICENTER": 70.9943, "MEAN_ANOMALY": 79.636, "EPHEMERIS_TYPE": 0, "CLASSIFICATION_TYPE": "U", "NORAD_CAT_ID": 30136, "ELEMENT_SET_NO": 999, "REV_AT_EPOCH": 96083, "BSTAR": 0.00054889, "MEAN_MOTION_DOT": 7.58e-06, "MEAN_MOTION_DDOT": 0}, "tle": {"line1": "1 30136U 99025SR  25346.19018757  .00000758  00000+0  54889-3 0  9992", "line2": "2 30136  98.5567 239.0916 0129453  70.9943  79.6360 13.95324098960832"}}, "geometry": {"type": "Point", "coordinates": [57.47080049293806, -12.385145452538007]}}, {"type": "Feature", "properties": {"norad_id": 30138, "name": "FENGYUN 1C DEB", "group": "fengyun-1c-debris", "lat": -75.14651959427728, "lon": -175.7950467934335, "alt_km": 839.6809026374804, "timestamp": "2025-12-12T11:38:31.686113+00:00", "meta": {"OBJECT_NAME": "FENGYUN 1C DEB", "OBJECT_ID": "1999-025ST", "EPOCH": "2025-12-11T23:10:29.154144", "MEAN_MOTION": 14.20023651, "ECCENTRICITY": 0.0020447, "INCLINATION": 98.7592, "RA_OF_ASC_NODE": 39.2357, "ARG_OF_PERICENTER": 140.4147, "MEAN_ANOMALY": 343.2116, "EPHEMERIS_TYPE": 0, "CLASSIFICATION_TYPE": "U", "NORAD_CAT_ID": 30138, "ELEMENT_SET_NO": 999, "REV_AT_EPOCH": 97390, "BSTAR": 0.0012814, "MEAN_MOTION_DOT": 2.689e-05, "MEAN_MOTION_DDOT": 0}, "tle": {"line1": "1 30138U 99025ST  25345.96561521  .00002689  00000+0  12814-2 0  9996", "line2": "2 30138  98.7592  39.2357 0020447 140.4147 343.2116 14.20023651973906"}}, "geometry": {"type": "Point", "coordinates": [-175.7950467934335, -75.14651959427728]}}, {"type": "Feature", "properties": {"norad_id": 30139, "name": "FENGYUN 1C DEB", "group": "fengyun-1c-debris", "lat": 66.93677200809555, "lon": 30.306507888172302, "alt_km": 969.8480390716295, "timestamp": "2025-12-12T11:38:31.686123+00:00", "meta": {"OBJECT_NAME": "FENGYUN 1C DEB", "OBJECT_ID": "1999-025SU", "EPOCH": "2025-12-08T13:16:40.867392", "MEAN_MOTION": 14.03631846, "ECCENTRICITY": 0.0131198, "INCLINATION": 98.3646, "RA_OF_ASC_NODE": 186.472, "ARG_OF_PERICENTER": 302.3773, "MEAN_ANOMALY": 112.2394, "EPHEMERIS_TYPE": 0, "CLASSIFICATION_TYPE": "U", "NORAD_CAT_ID": 30139, "ELEMENT_SET_NO": 999, "REV_AT_EPOCH": 96191, "BSTAR": 0.0019706, "MEAN_MOTION_DOT": 3.301e-05, "MEAN_MOTION_DDOT": 0}, "tle": {"line1": "1 30139U 99025SU  25342.55325078  .00003301  00000+0  19706-2 0  9993", "line2": "2 30139  98.3646 186.4720 0131198 302.3773 112.2394 14.03631846961914"}}, "geometry": {"type": "Point", "coordinates": [30.306507888172302, 66.93677200809555]}}, {"type": "Feature", "properties": {"norad_id": 30140, "name": "FENGYUN 1C DEB", "group": "fengyun-1c-debris", "lat": 70.28427864671711, "lon": 23.659519178753456, "alt_km": 831.3339339218146, "timestamp": "2025-12-12T11:38:31.686133+00:00", "meta": {"OBJECT_NAME": "FENGYUN 1C DEB", "OBJECT_ID": "1999-025SV", "EPOCH": "2025-12-12T02:59:27.700224", "MEAN_MOTION": 14.20742777, "ECCENTRICITY": 0.0040581, "INCLINATION": 98.8269, "RA_OF_ASC_NODE": 48.9963, "ARG_OF_PERICENTER": 311.5162, "MEAN_ANOMALY": 77.8073, "EPHEMERIS_TYPE": 0, "CLASSIFICATION_TYPE": "U", "NORAD_CAT_ID": 30140, "ELEMENT_SET_NO": 999, "REV_AT_EPOCH": 97135, "BSTAR": 0.0020096, "MEAN_MOTION_DOT": 4.328e-05, "MEAN_MOTION_DDOT": 0}, "tle": {"line1": "1 30140U 99025SV  25346.12462616  .00004328  00000+0  20096-2 0  9996", "line2": "2 30140  98.8269  48.9963 0040581 311.5162  77.8073 14.20742777971356"}}, "geometry": {"type": "Point", "coordinates": [23.659519178753456, 70.28427864671711]}}, {"type": "Feature", "properties": {"norad_id": 30141, "name": "FENGYUN 1C DEB", "group": "fengyun-1c-debris", "lat": 76.7815012387412, "lon": 130.7514504000968, "alt_km": 707.1355976162968, "timestamp": "2025-12-12T11:38:31.686143+00:00", "meta": {"OBJECT_NAME": "FENGYUN 1C DEB", "OBJECT_ID": "1999-025SW", "EPOCH": "2025-12-11T00:26:38.982336", "MEAN_MOTION": 14.51503608, "ECCENTRICITY": 0.00194043, "INCLINATION": 99.0137, "RA_OF_ASC_NODE": 266.6649, "ARG_OF_PERICENTER": 40.6325, "MEAN_ANOMALY": 319.6312, "EPHEMERIS_TYPE": 0, "CLASSIFICATION_TYPE": "U", "NORAD_CAT_ID": 30141, "ELEMENT_SET_NO": 999, "REV_AT_EPOCH": 98219, "BSTAR": 0.0042268672, "MEAN_MOTION_DOT": 0.00016928, "MEAN_MOTION_DDOT": 0}, "tle": {"line1": "1 30141U 99025SW  25345.01850674  .00016928  00000+0  42269-2 0  9994", "line2": "2 30141  99.0137 266.6649 0019404  40.6325 319.6312 14.51503608982194"}}, "geometry": {"type": "Point", "coordinates": [130.7514504000968, 76.7815012387412]}}, {"type": "Feature", "properties": {"norad_id": 30142, "name": "FENGYUN 1C DEB", "group": "fengyun-1c-debris", "lat": -10.628581937761261, "lon": 63.9852187362156, "alt_km": 805.8462873671251, "timestamp": "2025-12-12T11:38:31.686153+00:00", "meta": {"OBJECT_NAME": "FENGYUN 1C DEB", "OBJECT_ID": "1999-025SX", "EPOCH": "2025-12-12T03:10:47.769312", "MEAN_MOTION": 14.10474815, "ECCENTRICITY": 0.0101225, "INCLINATION": 99.1282, "RA_OF_ASC_NODE": 61.8983, "ARG_OF_PERICENTER": 309.8856, "MEAN_ANOMALY": 49.3446, "EPHEMERIS_TYPE": 0, "CLASSIFICATION_TYPE": "U", "NORAD_CAT_ID": 30142, "ELEMENT_SET_NO": 999, "REV_AT_EPOCH": 96290, "BSTAR": 0.0024867, "MEAN_MOTION_DOT": 4.597e-05, "MEAN_MOTION_DDOT": 0}, "tle": {"line1": "1 30142U 99025SX  25346.13249733  .00004597  00000+0  24867-2 0  9990", "line2": "2 30142  99.1282  61.8983 0101225 309.8856  49.3446 14.10474815962909"}}, "geometry": {"type": "Point", "coordinates": [63.9852187362156, -10.628581937761261]}}, {"type": "Feature", "properties": {"norad_id": 30143, "name": "FENGYUN 1C DEB", "group": "fengyun-1c-debris", "lat": -71.45519102667244, "lon": -162.93895080011626, "alt_km": 817.0209067133765, "timestamp": "2025-12-12T11:38:31.686163+00:00", "meta": {"OBJECT_NAME": "FENGYUN 1C DEB", "OBJECT_ID": "1999-025SY", "EPOCH": "2025-12-12T00:36:54.323136", "MEAN_MOTION": 14.02578682, "ECCENTRICITY": 0.0103813, "INCLINATION": 98.7349, "RA_OF_ASC_NODE": 169.3434, "ARG_OF_PERICENTER": 292.8873, "MEAN_ANOMALY": 195.0134, "EPHEMERIS_TYPE": 0, "CLASSIFICATION_TYPE": "U", "NORAD_CAT_ID": 30143, "ELEMENT_SET_NO": 999, "REV_AT_EPOCH": 96209, "BSTAR": 0.0017926, "MEAN_MOTION_DOT": 2.854e-05, "MEAN_MOTION_DDOT": 0}, "tle": {"line1": "1 30143U 99025SY  25346.02562874  .00002854  00000+0  17926-2 0  9995", "line2": "2 30143  98.7349 169.3434 0103813 292.8873 195.0134 14.02578682962090"}}, "geometry": {"type": "Point", "coordinates": [-162.93895080011626, -71.45519102667244]}}, {"type": "Feature", "properties": {"norad_id": 30144, "name": "FENGYUN 1C DEB", "group": "fengyun-1c-debris", "lat": -13.349126978114938, "lon": -18.57011199587189, "alt_km": 873.3234018192779, "timestamp": "2025-12-12T11:38:31.686173+00:00", "meta": {"OBJECT_NAME": "FENGYUN 1C DEB", "OBJECT_ID": "1999-025SZ", "EPOCH": "2025-12-11T22:11:45.398400", "MEAN_MOTION": 13.91816597, "ECCENTRICITY": 0.0125792, "INCLINATION": 99.01, "RA_OF_ASC_NODE": 338.7279, "ARG_OF_PERICENTER": 293.0644, "MEAN_ANOMALY": 126.6876, "EPHEMERIS_TYPE": 0, "CLASSIFICATION_TYPE": "U", "NORAD_CAT_ID": 30144, "ELEMENT_SET_NO": 999, "REV_AT_EPOCH": 95829, "BSTAR": 0.00087407, "MEAN_MOTION_DOT": 1.143e-05, "MEAN_MOTION_DDOT": 0}, "tle": {"line1": "1 30144U 99025SZ  25345.92483100  .00001143  00000+0  87407-3 0  9990", "line2": "2 30144  99.0100 338.7279 0125792 293.0644 126.6876 13.91816597958295"}}, "geometry": {"type": "Point", "coordinates": [-18.57011199587189, -13.349126978114938]}}, {"type": "Feature", "properties": {"norad_id": 30145, "name": "FENGYUN 1C DEB", "group": "fengyun-1c-debris", "lat": 38.38306075971669, "lon": 88.6221966805242, "alt_km": 865.1998700162203, "timestamp": "2025-12-12T11:38:31.686184+00:00", "meta": {"OBJECT_NAME": "FENGYUN 1C DEB", "OBJECT_ID": "1999-025TA", "EPOCH": "2025-12-11T13:41:59.282592", "MEAN_MOTION": 14.14005865, "ECCENTRICITY": 0.00917739, "INCLINATION": 99.2692, "RA_OF_ASC_NODE": 95.1069, "ARG_OF_PERICENTER": 151.9563, "MEAN_ANOMALY": 276.6525, "EPHEMERIS_TYPE": 0, "CLASSIFICATION_TYPE": "U", "NORAD_CAT_ID": 30145, "ELEMENT_SET_NO": 999, "REV_AT_EPOCH": 96179, "BSTAR": 0.0045052647, "MEAN_MOTION_DOT": 8.876e-05, "MEAN_MOTION_DDOT": 0}, "tle": {"line1": "1 30145U 99025TA  25345.57082503  .00008876  00000+0  45053-2 0  9994", "line2": "2 30145  99.2692  95.1069 0091773 151.9563 276.6525 14.14005865961798"}}, "geometry": {"type": "Point", "coordinates": [88.6221966805242, 38.38306075971669]}}]}